STARLINK-2454           
1 48116U 21027AA  26060.80099853  .00005131  00000+0  18516-3 0  9991
2 48116  53.1597 201.9039 0001175  85.0040 275.1095 15.30211864271300
STARLINK-2455           
1 48117U 21027AB  26060.76217468  .00004485  00000+0  31955-3 0  9994
2 48117  53.0536 187.1964 0001226  89.9617 270.1513 15.06425885271500
STARLINK-2459           
1 48119U 21027AD  26061.03494442 -.00000048  00000+0  15665-4 0  9999
2 48119  53.0559 185.9739 0001895  83.0701 277.0503 15.06394504271535
STARLINK-2460           
1 48120U 21027AE  26061.10606299  .00002019  00000+0  80292-4 0  9991
2 48120  53.1605 203.0334 0001234  79.4397 280.6743 15.30187799271326
STARLINK-2462           
1 48121U 21027AF  26061.05175098  .00001791  00000+0  72588-4 0  9999
2 48121  53.1595 190.4068 0001053  84.8556 275.2565 15.30197982271488
STARLINK-2464           
1 48123U 21027AH  26060.68939352  .00002443  00000+0  18279-3 0  9991
2 48123  53.0560 187.5330 0001340  92.6884 267.4259 15.06412571271491
STARLINK-2465           
1 48124U 21027AJ  26061.06123538 -.00001336  00000+0 -33017-4 0  9996
2 48124  53.1579 190.3842 0001027  86.2776 273.8342 15.30189663271487
STARLINK-2466           
1 48125U 21027AK  26061.08439152  .00001391  00000+0  59096-4 0  9995
2 48125  53.1602 200.6156 0001197  93.4057 266.7080 15.30192010271343
STARLINK-2467           
1 48126U 21027AL  26061.05430424  .00018888  00000+0  12826-2 0  9993
2 48126  53.0551 185.8960 0000551  68.1646 291.9402 15.06427744271558
STARLINK-2468           
1 48127U 21027AM  26060.67354331  .00004074  00000+0  14953-3 0  9999
2 48127  53.1624 202.6379 0001265  70.9957 289.1181 15.30216226271283
STARLINK-2469           
1 48128U 21027AN  26061.16668981  .00109996  00000+0  57540-2 0  9991
2 48128  53.0881 135.3341 0001711  72.3859  53.3662 15.14973119  5779
STARLINK-2471           
1 48129U 21027AP  26060.61774827  .00001067  00000+0  48162-4 0  9990
2 48129  53.1603 203.0622 0001190  78.1386 281.9748 15.30197586271276
STARLINK-2472           
1 48130U 21027AQ  26061.16668981  .00037062  00000+0  12588-2 0  9991
2 48130  53.1576 203.1359 0001134  97.8656 352.3028 15.30160354  5846
STARLINK-2473           
1 48131U 21027AR  26061.04694701  .00005234  00000+0  37004-3 0  9995
2 48131  53.0547 185.9272 0001420  88.9441 271.1711 15.06393831271546
STARLINK-2474           
1 48132U 21027AS  26060.56772498  .00015745  00000+0  54244-3 0  9995
2 48132  53.1594 205.5201 0001453  89.7966 270.3201 15.30209684271227
STARLINK-2475           
1 48133U 21027AT  26061.10125453  .00010206  00000+0  35620-3 0  9994
2 48133  53.1617 200.5758 0001183  71.1504 288.9625 15.30202360271352
