[{"OBJECT_NAME":"STARLINK-2454","OBJECT_ID":"2021-027AA","EPOCH":"2026-03-01T19:13:26.272992","MEAN_MOTION":15.30211864,"ECCENTRICITY":0.00011757,"INCLINATION":53.1597,"RA_OF_ASC_NODE":201.9039,"ARG_OF_PERICENTER":85.004,"MEAN_ANOMALY":275.1095,"EPHEMERIS_TYPE":0,"CLASSIFICATION_TYPE":"U","NORAD_CAT_ID":48116,"ELEMENT_SET_NO":999,"REV_AT_EPOCH":27130,"BSTAR":0.0001851619,"MEAN_MOTION_DOT":5.131e-5,"MEAN_MOTION_DDOT":0},{"OBJECT_NAME":"STARLINK-2455","OBJECT_ID":"2021-027AB","EPOCH":"2026-03-01T18:17:31.892352","MEAN_MOTION":15.06425885,"ECCENTRICITY":0.00012268,"INCLINATION":53.0536,"RA_OF_ASC_NODE":187.1964,"ARG_OF_PERICENTER":89.9617,"MEAN_ANOMALY":270.1513,"EPHEMERIS_TYPE":0,"CLASSIFICATION_TYPE":"U","NORAD_CAT_ID":48117,"ELEMENT_SET_NO":999,"REV_AT_EPOCH":27150,"BSTAR":0.00031955131,"MEAN_MOTION_DOT":4.485e-5,"MEAN_MOTION_DDOT":0},{"OBJECT_NAME":"STARLINK-2459","OBJECT_ID":"2021-027AD","EPOCH":"2026-03-02T00:50:19.197888","MEAN_MOTION":15.06394504,"ECCENTRICITY":0.0001895,"INCLINATION":53.0559,"RA_OF_ASC_NODE":185.9739,"ARG_OF_PERICENTER":83.0701,"MEAN_ANOMALY":277.0503,"EPHEMERIS_TYPE":0,"CLASSIFICATION_TYPE":"U","NORAD_CAT_ID":48119,"ELEMENT_SET_NO":999,"REV_AT_EPOCH":27153,"BSTAR":1.5665e-5,"MEAN_MOTION_DOT":-4.8e-7,"MEAN_MOTION_DDOT":0},{"OBJECT_NAME":"STARLINK-2460","OBJECT_ID":"2021-027AE","EPOCH":"2026-03-02T02:32:43.842336","MEAN_MOTION":15.30187799,"ECCENTRICITY":0.0001234,"INCLINATION":53.1605,"RA_OF_ASC_NODE":203.0334,"ARG_OF_PERICENTER":79.4397,"MEAN_ANOMALY":280.6743,"EPHEMERIS_TYPE":0,"CLASSIFICATION_TYPE":"U","NORAD_CAT_ID":48120,"ELEMENT_SET_NO":999,"REV_AT_EPOCH":27132,"BSTAR":8.0292e-5,"MEAN_MOTION_DOT":2.019e-5,"MEAN_MOTION_DDOT":0},{"OBJECT_NAME":"STARLINK-2462","OBJECT_ID":"2021-027AF","EPOCH":"2026-03-02T01:14:31.284672","MEAN_MOTION":15.30197982,"ECCENTRICITY":0.0001053,"INCLINATION":53.1595,"RA_OF_ASC_NODE":190.4068,"ARG_OF_PERICENTER":84.8556,"MEAN_ANOMALY":275.2565,"EPHEMERIS_TYPE":0,"CLASSIFICATION_TYPE":"U","NORAD_CAT_ID":48121,"ELEMENT_SET_NO":999,"REV_AT_EPOCH":27148,"BSTAR":7.2588e-5,"MEAN_MOTION_DOT":1.791e-5,"MEAN_MOTION_DDOT":0},{"OBJECT_NAME":"STARLINK-2464","OBJECT_ID":"2021-027AH","EPOCH":"2026-03-01T16:32:43.600128","MEAN_MOTION":15.06412571,"ECCENTRICITY":0.00013404,"INCLINATION":53.056,"RA_OF_ASC_NODE":187.533,"ARG_OF_PERICENTER":92.6884,"MEAN_ANOMALY":267.4259,"EPHEMERIS_TYPE":0,"CLASSIFICATION_TYPE":"U","NORAD_CAT_ID":48123,"ELEMENT_SET_NO":999,"REV_AT_EPOCH":27149,"BSTAR":0.0001827898,"MEAN_MOTION_DOT":2.443e-5,"MEAN_MOTION_DDOT":0},{"OBJECT_NAME":"STARLINK-2465","OBJECT_ID":"2021-027AJ","EPOCH":"2026-03-02T01:28:10.736832","MEAN_MOTION":15.30189663,"ECCENTRICITY":0.0001027,"INCLINATION":53.1579,"RA_OF_ASC_NODE":190.3842,"ARG_OF_PERICENTER":86.2776,"MEAN_ANOMALY":273.8342,"EPHEMERIS_TYPE":0,"CLASSIFICATION_TYPE":"U","NORAD_CAT_ID":48124,"ELEMENT_SET_NO":999,"REV_AT_EPOCH":27148,"BSTAR":-3.3017e-5,"MEAN_MOTION_DOT":-1.336e-5,"MEAN_MOTION_DDOT":0},{"OBJECT_NAME":"STARLINK-2466","OBJECT_ID":"2021-027AK","EPOCH":"2026-03-02T02:01:31.427328","MEAN_MOTION":15.3019201,"ECCENTRICITY":0.0001197,"INCLINATION":53.1602,"RA_OF_ASC_NODE":200.6156,"ARG_OF_PERICENTER":93.4057,"MEAN_ANOMALY":266.708,"EPHEMERIS_TYPE":0,"CLASSIFICATION_TYPE":"U","NORAD_CAT_ID":48125,"ELEMENT_SET_NO":999,"REV_AT_EPOCH":27134,"BSTAR":5.9096e-5,"MEAN_MOTION_DOT":1.391e-5,"MEAN_MOTION_DDOT":0},{"OBJECT_NAME":"STARLINK-2467","OBJECT_ID":"2021-027AL","EPOCH":"2026-03-02T01:18:11.886336","MEAN_MOTION":15.06427744,"ECCENTRICITY":5.51e-5,"INCLINATION":53.0551,"RA_OF_ASC_NODE":185.896,"ARG_OF_PERICENTER":68.1646,"MEAN_ANOMALY":291.9402,"EPHEMERIS_TYPE":0,"CLASSIFICATION_TYPE":"U","NORAD_CAT_ID":48126,"ELEMENT_SET_NO":999,"REV_AT_EPOCH":27155,"BSTAR":0.0012826,"MEAN_MOTION_DOT":0.00018888,"MEAN_MOTION_DDOT":0},{"OBJECT_NAME":"STARLINK-2468","OBJECT_ID":"2021-027AM","EPOCH":"2026-03-01T16:09:54.141984","MEAN_MOTION":15.30216226,"ECCENTRICITY":0.00012656,"INCLINATION":53.1624,"RA_OF_ASC_NODE":202.6379,"ARG_OF_PERICENTER":70.9957,"MEAN_ANOMALY":289.1181,"EPHEMERIS_TYPE":0,"CLASSIFICATION_TYPE":"U","NORAD_CAT_ID":48127,"ELEMENT_SET_NO":999,"REV_AT_EPOCH":27128,"BSTAR":0.00014952852,"MEAN_MOTION_DOT":4.074e-5,"MEAN_MOTION_DDOT":0},{"OBJECT_NAME":"STARLINK-2469","OBJECT_ID":"2021-027AN","EPOCH":"2026-03-02T04:00:01.999584","MEAN_MOTION":15.14973119,"ECCENTRICITY":0.0001711,"INCLINATION":53.0881,"RA_OF_ASC_NODE":135.3341,"ARG_OF_PERICENTER":72.3859,"MEAN_ANOMALY":53.3662,"EPHEMERIS_TYPE":0,"CLASSIFICATION_TYPE":"U","NORAD_CAT_ID":48128,"ELEMENT_SET_NO":999,"REV_AT_EPOCH":577,"BSTAR":0.005754,"MEAN_MOTION_DOT":0.00109996,"MEAN_MOTION_DDOT":0},{"OBJECT_NAME":"STARLINK-2471","OBJECT_ID":"2021-027AP","EPOCH":"2026-03-01T14:49:33.450528","MEAN_MOTION":15.30197586,"ECCENTRICITY":0.00011904,"INCLINATION":53.1603,"RA_OF_ASC_NODE":203.0622,"ARG_OF_PERICENTER":78.1386,"MEAN_ANOMALY":281.9748,"EPHEMERIS_TYPE":0,"CLASSIFICATION_TYPE":"U","NORAD_CAT_ID":48129,"ELEMENT_SET_NO":999,"REV_AT_EPOCH":27127,"BSTAR":4.8161686e-5,"MEAN_MOTION_DOT":1.067e-5,"MEAN_MOTION_DDOT":0},{"OBJECT_NAME":"STARLINK-2472","OBJECT_ID":"2021-027AQ","EPOCH":"2026-03-02T04:00:01.999584","MEAN_MOTION":15.30160354,"ECCENTRICITY":0.0001134,"INCLINATION":53.1576,"RA_OF_ASC_NODE":203.1359,"ARG_OF_PERICENTER":97.8656,"MEAN_ANOMALY":352.3028,"EPHEMERIS_TYPE":0,"CLASSIFICATION_TYPE":"U","NORAD_CAT_ID":48130,"ELEMENT_SET_NO":999,"REV_AT_EPOCH":584,"BSTAR":0.0012588,"MEAN_MOTION_DOT":0.00037062,"MEAN_MOTION_DDOT":0},{"OBJECT_NAME":"STARLINK-2473","OBJECT_ID":"2021-027AR","EPOCH":"2026-03-02T01:07:36.221664","MEAN_MOTION":15.06393831,"ECCENTRICITY":0.000142,"INCLINATION":53.0547,"RA_OF_ASC_NODE":185.9272,"ARG_OF_PERICENTER":88.9441,"MEAN_ANOMALY":271.1711,"EPHEMERIS_TYPE":0,"CLASSIFICATION_TYPE":"U","NORAD_CAT_ID":48131,"ELEMENT_SET_NO":999,"REV_AT_EPOCH":27154,"BSTAR":0.00037004,"MEAN_MOTION_DOT":5.234e-5,"MEAN_MOTION_DDOT":0},{"OBJECT_NAME":"STARLINK-2474","OBJECT_ID":"2021-027AS","EPOCH":"2026-03-01T13:37:31.438272","MEAN_MOTION":15.30209684,"ECCENTRICITY":0.00014531,"INCLINATION":53.1594,"RA_OF_ASC_NODE":205.5201,"ARG_OF_PERICENTER":89.7966,"MEAN_ANOMALY":270.3201,"EPHEMERIS_TYPE":0,"CLASSIFICATION_TYPE":"U","NORAD_CAT_ID":48132,"ELEMENT_SET_NO":999,"REV_AT_EPOCH":27122,"BSTAR":0.00054243502,"MEAN_MOTION_DOT":0.00015745,"MEAN_MOTION_DDOT":0},{"OBJECT_NAME":"STARLINK-2475","OBJECT_ID":"2021-027AT","EPOCH":"2026-03-02T02:25:48.391392","MEAN_MOTION":15.3020236,"ECCENTRICITY":0.0001183,"INCLINATION":53.1617,"RA_OF_ASC_NODE":200.5758,"ARG_OF_PERICENTER":71.1504,"MEAN_ANOMALY":288.9625,"EPHEMERIS_TYPE":0,"CLASSIFICATION_TYPE":"U","NORAD_CAT_ID":48133,"ELEMENT_SET_NO":999,"REV_AT_EPOCH":27135,"BSTAR":0.0003562,"MEAN_MOTION_DOT":0.00010206,"MEAN_MOTION_DDOT":0}]
